{"type":"FeatureCollection","features":[{"type":"Feature","properties":{"name":"Lago Alajuela","name_ja":"アラフエラ湖","source":"OpenStreetMap relation/1236001 (ODbL)"},"geometry":{"type":"MultiPolygon","coordinates":[[[[-79.58159,9.30634],[-79.58028,9.30677],[-79.57944,9.30403],[-79.58245,9.30292],[-79.58288,9.30106],[-79.57797,9.29853],[-79.57591,9.30102],[-79.57445,9.30123],[-79.57663,9.2976],[-79.57405,9.29498],[-79.57764,9.29735],[-79.58052,9.29595],[-79.5816,9.29368],[-79.58105,9.29308],[-79.57743,9.29371],[-79.57926,9.29268],[-79.5787,9.29095],[-79.5807,9.29181],[-79.5823,9.29108],[-79.58071,9.28893],[-79.58181,9.28777],[-79.5815,9.28684],[-79.57891,9.28523],[-79.57834,9.2828],[-79.57681,9.28167],[-79.576,9.28393],[-79.57415,9.28478],[-79.57566,9.28586],[-79.57295,9.28554],[-79.57332,9.2847],[-79.57108,9.28613],[-79.5699,9.28474],[-79.56862,9.28543],[-79.56893,9.28473],[-79.56616,9.28413],[-79.5695,9.28453],[-79.57022,9.28357],[-79.57131,9.28436],[-79.57166,9.28335],[-79.57422,9.28369],[-79.57602,9.28251],[-79.5763,9.27994],[-79.57474,9.27935],[-79.57615,9.27811],[-79.57479,9.27767],[-79.57225,9.28041],[-79.57298,9.27818],[-79.57002,9.27834],[-79.57068,9.2776],[-79.57009,9.27698],[-79.57132,9.27688],[-79.57118,9.27579],[-79.57361,9.27791],[-79.57277,9.27515],[-79.57377,9.27695],[-79.57552,9.27717],[-79.57751,9.27528],[-79.57924,9.27066],[-79.5766,9.26953],[-79.5758,9.27207],[-79.57478,9.27077],[-79.57055,9.27276],[-79.57019,9.27467],[-79.56916,9.27444],[-79.57035,9.26996],[-79.57157,9.27028],[-79.57053,9.26854],[-79.57202,9.26964],[-79.57373,9.26905],[-79.57117,9.26817],[-79.57254,9.2674],[-79.57202,9.26574],[-79.57281,9.26766],[-79.57523,9.26739],[-79.57458,9.26632],[-79.57616,9.2673],[-79.57591,9.26617],[-79.57689,9.26569],[-79.57329,9.26571],[-79.57333,9.26432],[-79.57117,9.26349],[-79.57442,9.26368],[-79.57518,9.26327],[-79.57401,9.26221],[-79.57496,9.26146],[-79.57073,9.25838],[-79.57194,9.25724],[-79.57007,9.25727],[-79.57005,9.25629],[-79.57086,9.25629],[-79.56817,9.25516],[-79.5713,9.2549],[-79.57119,9.2538],[-79.56985,9.25365],[-79.56975,9.25187],[-79.56885,9.25184],[-79.56845,9.25301],[-79.56691,9.25238],[-79.56906,9.25028],[-79.56496,9.2507],[-79.56921,9.24685],[-79.56645,9.24704],[-79.5668,9.24595],[-79.56545,9.24837],[-79.56388,9.24873],[-79.56485,9.24756],[-79.56347,9.24671],[-79.56484,9.24582],[-79.56468,9.2442],[-79.56281,9.24506],[-79.56213,9.24801],[-79.56134,9.24799],[-79.5625,9.24339],[-79.56376,9.24344],[-79.56338,9.24188],[-79.56036,9.24077],[-79.55928,9.24161],[-79.55932,9.24296],[-79.55828,9.24316],[-79.55856,9.24857],[-79.55718,9.24721],[-79.55798,9.24884],[-79.55735,9.24934],[-79.55625,9.24769],[-79.557,9.24467],[-79.55524,9.24702],[-79.55337,9.24763],[-79.55567,9.24473],[-79.55353,9.24365],[-79.55322,9.24534],[-79.55,9.2486],[-79.54982,9.24737],[-79.55119,9.24588],[-79.54978,9.24611],[-79.54967,9.24395],[-79.5489,9.24501],[-79.54788,9.24438],[-79.54892,9.24306],[-79.54744,9.24248],[-79.5515,9.24387],[-79.55344,9.2423],[-79.55687,9.24313],[-79.55691,9.23901],[-79.55777,9.23794],[-79.55632,9.2369],[-79.5549,9.23939],[-79.55525,9.2383],[-79.55325,9.23813],[-79.55556,9.23631],[-79.55373,9.23355],[-79.55288,9.23481],[-79.55132,9.23477],[-79.55177,9.23718],[-79.55086,9.23568],[-79.54946,9.23598],[-79.55115,9.23375],[-79.5489,9.23365],[-79.54824,9.23062],[-79.55224,9.22707],[-79.55379,9.22771],[-79.5555,9.22711],[-79.55556,9.22546],[-79.55727,9.22402],[-79.55766,9.22498],[-79.55974,9.22476],[-79.56263,9.22109],[-79.56662,9.21935],[-79.56774,9.21655],[-79.56662,9.21545],[-79.56419,9.21926],[-79.56328,9.21759],[-79.56141,9.22009],[-79.55946,9.22021],[-79.56068,9.21844],[-79.55882,9.21777],[-79.56013,9.21672],[-79.55985,9.21562],[-79.56115,9.21435],[-79.56312,9.21427],[-79.56216,9.21377],[-79.56461,9.21214],[-79.56513,9.21],[-79.56383,9.20869],[-79.56433,9.20698],[-79.56572,9.20624],[-79.56528,9.20515],[-79.56383,9.20532],[-79.56378,9.2041],[-79.56527,9.20238],[-79.56446,9.19997],[-79.56578,9.19773],[-79.56419,9.19764],[-79.56409,9.19922],[-79.56384,9.19773],[-79.56292,9.19754],[-79.56054,9.2006],[-79.5612,9.19717],[-79.55921,9.19886],[-79.55852,9.19865],[-79.55894,9.19725],[-79.55759,9.19924],[-79.55661,9.19765],[-79.55757,9.1983],[-79.55698,9.1977],[-79.5587,9.19658],[-79.55834,9.19587],[-79.55972,9.19744],[-79.56221,9.1963],[-79.55974,9.19221],[-79.56123,9.19419],[-79.56271,9.1931],[-79.56363,9.19344],[-79.56412,9.19278],[-79.56284,9.19081],[-79.56452,9.19148],[-79.56408,9.19732],[-79.56554,9.19588],[-79.56629,9.19646],[-79.56725,9.19544],[-79.56694,9.19707],[-79.56852,9.19568],[-79.56996,9.2001],[-79.57067,9.20034],[-79.57105,9.19727],[-79.57183,9.19914],[-79.57702,9.19931],[-79.57805,9.20126],[-79.57795,9.20006],[-79.57911,9.19926],[-79.57791,9.1984],[-79.5788,9.19681],[-79.57766,9.19874],[-79.57358,9.19774],[-79.57655,9.19772],[-79.57948,9.19553],[-79.57846,9.19548],[-79.579,9.19149],[-79.57669,9.1915],[-79.57736,9.19093],[-79.57674,9.19072],[-79.57879,9.19071],[-79.57826,9.18834],[-79.57987,9.19055],[-79.58097,9.19043],[-79.58094,9.18905],[-79.58141,9.19029],[-79.58233,9.1902],[-79.58204,9.18676],[-79.58046,9.18614],[-79.58153,9.18605],[-79.58071,9.18468],[-79.58232,9.18468],[-79.58194,9.18211],[-79.5825,9.187],[-79.58303,9.1877],[-79.5847,9.1872],[-79.58474,9.18904],[-79.58611,9.18935],[-79.58466,9.19135],[-79.58389,9.19002],[-79.58294,9.19027],[-79.58321,9.19542],[-79.58461,9.19537],[-79.58476,9.1933],[-79.58557,9.1943],[-79.58631,9.19393],[-79.58499,9.19175],[-79.58679,9.19135],[-79.58727,9.19284],[-79.5883,9.19209],[-79.58779,9.19076],[-79.58956,9.19148],[-79.59182,9.18964],[-79.59188,9.19086],[-79.58925,9.1922],[-79.58906,9.194],[-79.58797,9.19422],[-79.58816,9.19549],[-79.58663,9.19514],[-79.58709,9.19721],[-79.58537,9.19629],[-79.58617,9.19782],[-79.58464,9.19921],[-79.58705,9.20148],[-79.58596,9.19921],[-79.58809,9.19966],[-79.58877,9.20242],[-79.58994,9.20112],[-79.58745,9.19761],[-79.58943,9.20021],[-79.59001,9.19812],[-79.59118,9.20041],[-79.59111,9.19938],[-79.59241,9.19977],[-79.59333,9.19873],[-79.59211,9.19751],[-79.59374,9.19841],[-79.59323,9.20034],[-79.59242,9.20047],[-79.59314,9.2027],[-79.59517,9.20283],[-79.59369,9.2044],[-79.59399,9.20359],[-79.59177,9.20091],[-79.59089,9.20145],[-79.59108,9.20291],[-79.59016,9.20298],[-79.59041,9.20437],[-79.59212,9.20402],[-79.59065,9.2055],[-79.59239,9.20695],[-79.59137,9.21052],[-79.59317,9.21118],[-79.59513,9.21482],[-79.6012,9.21641],[-79.60598,9.22],[-79.61018,9.21943],[-79.61297,9.223],[-79.61468,9.22003],[-79.61253,9.21959],[-79.60989,9.21623],[-79.61092,9.21301],[-79.61013,9.21056],[-79.60802,9.21355],[-79.60859,9.21184],[-79.60553,9.20915],[-79.60516,9.20739],[-79.60326,9.20791],[-79.61013,9.20507],[-79.61212,9.20315],[-79.61368,9.20437],[-79.61396,9.2026],[-79.61602,9.20257],[-79.61518,9.20332],[-79.6161,9.20381],[-79.61479,9.20475],[-79.61587,9.20607],[-79.61594,9.21241],[-79.6136,9.21099],[-79.61312,9.21611],[-79.61391,9.21717],[-79.61659,9.21571],[-79.61782,9.21603],[-79.61774,9.21399],[-79.61955,9.21291],[-79.62109,9.21771],[-79.61924,9.21729],[-79.61908,9.21993],[-79.62113,9.21819],[-79.6221,9.22089],[-79.62135,9.22292],[-79.61967,9.22137],[-79.61861,9.22283],[-79.61769,9.22217],[-79.61683,9.22458],[-79.61595,9.22411],[-79.61543,9.22585],[-79.61293,9.22769],[-79.60909,9.22573],[-79.60954,9.22875],[-79.6085,9.22796],[-79.60609,9.23096],[-79.60497,9.23112],[-79.60675,9.22808],[-79.60493,9.22899],[-79.60441,9.22796],[-79.60228,9.22866],[-79.602,9.22753],[-79.60054,9.22838],[-79.60051,9.2266],[-79.60144,9.22592],[-79.59976,9.22588],[-79.59958,9.22449],[-79.59739,9.22618],[-79.59875,9.22423],[-79.59719,9.22363],[-79.59948,9.22287],[-79.60068,9.22084],[-79.59856,9.22053],[-79.59775,9.22238],[-79.59623,9.2218],[-79.59455,9.2227],[-79.59198,9.22247],[-79.58902,9.22076],[-79.59115,9.22371],[-79.59009,9.22433],[-79.58954,9.22314],[-79.58898,9.22504],[-79.59004,9.22503],[-79.59035,9.22626],[-79.59281,9.22767],[-79.58903,9.22681],[-79.58921,9.2284],[-79.5883,9.22886],[-79.59092,9.23155],[-79.58944,9.23159],[-79.58963,9.23297],[-79.58801,9.23358],[-79.58858,9.23416],[-79.58621,9.23356],[-79.58859,9.23482],[-79.5895,9.23406],[-79.58955,9.23517],[-79.58846,9.23551],[-79.5901,9.23569],[-79.58942,9.23656],[-79.59176,9.23612],[-79.59062,9.23781],[-79.59115,9.23958],[-79.59143,9.23867],[-79.5933,9.24023],[-79.59268,9.24242],[-79.59508,9.24096],[-79.5951,9.24291],[-79.5994,9.24429],[-79.59893,9.2453],[-79.60089,9.24532],[-79.60178,9.24641],[-79.60024,9.24673],[-79.60126,9.2478],[-79.60079,9.24855],[-79.59729,9.24655],[-79.59861,9.24866],[-79.59456,9.24578],[-79.5929,9.24646],[-79.59405,9.24709],[-79.59289,9.24781],[-79.59536,9.24879],[-79.59266,9.24837],[-79.59333,9.24969],[-79.59235,9.24906],[-79.59187,9.25001],[-79.59096,9.24963],[-79.59061,9.25135],[-79.59157,9.25129],[-79.59178,9.25249],[-79.59321,9.25236],[-79.59179,9.253],[-79.58965,9.25152],[-79.58674,9.25509],[-79.58772,9.25567],[-79.59066,9.25367],[-79.58964,9.25564],[-79.59105,9.25556],[-79.59122,9.25666],[-79.59011,9.25615],[-79.5897,9.25732],[-79.58849,9.25648],[-79.58786,9.25729],[-79.58913,9.2586],[-79.58833,9.25919],[-79.58857,9.2611],[-79.58975,9.26168],[-79.59654,9.25823],[-79.59809,9.25486],[-79.6007,9.25428],[-79.60073,9.25349],[-79.59862,9.2524],[-79.5985,9.25004],[-79.60197,9.2518],[-79.6019,9.25292],[-79.60292,9.25169],[-79.60793,9.25188],[-79.60675,9.24802],[-79.6077,9.24731],[-79.60797,9.24934],[-79.60864,9.24836],[-79.60867,9.24955],[-79.61123,9.25078],[-79.61089,9.25209],[-79.61337,9.25129],[-79.61078,9.25256],[-79.61056,9.25388],[-79.60975,9.25149],[-79.60644,9.25278],[-79.60569,9.25406],[-79.60413,9.25334],[-79.60387,9.25442],[-79.60254,9.25407],[-79.60281,9.25594],[-79.60115,9.25538],[-79.60174,9.25723],[-79.60063,9.25666],[-79.60042,9.2591],[-79.60179,9.26434],[-79.60358,9.26555],[-79.6012,9.26546],[-79.60098,9.26789],[-79.59971,9.26834],[-79.60016,9.26512],[-79.59856,9.26488],[-79.60021,9.2632],[-79.59868,9.26098],[-79.59864,9.259],[-79.59835,9.25985],[-79.59538,9.2602],[-79.59493,9.26232],[-79.5957,9.26317],[-79.59351,9.26231],[-79.5931,9.26288],[-79.59196,9.26709],[-79.59302,9.26767],[-79.59243,9.27033],[-79.59498,9.27135],[-79.59247,9.27184],[-79.59252,9.27367],[-79.59607,9.2715],[-79.59632,9.27449],[-79.59396,9.2756],[-79.59401,9.2767],[-79.59488,9.27689],[-79.59445,9.27794],[-79.59302,9.27677],[-79.5921,9.27806],[-79.59089,9.27747],[-79.5939,9.28146],[-79.59235,9.28284],[-79.59301,9.28469],[-79.5912,9.28448],[-79.59144,9.28589],[-79.59281,9.28675],[-79.59253,9.28787],[-79.59088,9.28699],[-79.59086,9.28855],[-79.58979,9.288],[-79.58816,9.29254],[-79.5893,9.29323],[-79.5881,9.29329],[-79.58679,9.29941],[-79.58402,9.30028],[-79.58523,9.30169],[-79.58672,9.30152],[-79.58635,9.3027],[-79.58553,9.30247],[-79.58627,9.30419],[-79.58497,9.30313],[-79.58088,9.30454],[-79.58159,9.30634]],[[-79.57603,9.20685],[-79.5748,9.20648],[-79.57269,9.20175],[-79.57414,9.203],[-79.57474,9.20215],[-79.57711,9.20335],[-79.57603,9.20685]]]]}}]}