{"type":"FeatureCollection","features":[{"type":"Feature","properties":{"name":"Río Indio","name_ja":"リオ・インディオ川","source":"OpenStreetMap relation/9920800 (ODbL)"},"geometry":{"type":"MultiLineString","coordinates":[[[-80.11683,8.65738],[-80.11885,8.66147],[-80.11856,8.66685],[-80.11924,8.66902],[-80.11763,8.67029],[-80.11892,8.67324],[-80.11696,8.67855],[-80.11263,8.68164],[-80.11138,8.68641],[-80.11279,8.68746],[-80.11185,8.68944],[-80.11267,8.69061],[-80.11026,8.69157],[-80.11004,8.69271],[-80.11046,8.69433],[-80.11001,8.69543],[-80.1108,8.69571],[-80.11093,8.69819],[-80.11258,8.70071],[-80.11198,8.70211],[-80.11314,8.70254],[-80.11297,8.70406],[-80.11492,8.70642],[-80.11464,8.71015],[-80.11252,8.71178],[-80.11269,8.71477],[-80.11425,8.71657],[-80.11488,8.71844],[-80.11685,8.71861],[-80.11775,8.71996],[-80.11677,8.72199],[-80.11705,8.72362],[-80.11501,8.72324],[-80.11415,8.72544],[-80.1152,8.72699],[-80.11548,8.73068],[-80.11675,8.73185],[-80.11881,8.73193],[-80.12157,8.73306],[-80.12149,8.73679],[-80.12089,8.73791],[-80.12183,8.73823],[-80.12282,8.74141],[-80.12484,8.74353],[-80.12503,8.74822],[-80.12589,8.75004],[-80.12496,8.75125],[-80.12559,8.75312],[-80.12535,8.75507],[-80.12627,8.75494],[-80.12705,8.75581],[-80.12539,8.75725],[-80.12653,8.75783],[-80.1272,8.75927],[-80.12683,8.76226],[-80.12932,8.76232],[-80.12992,8.76453],[-80.13449,8.76773],[-80.13614,8.76765],[-80.13715,8.7668],[-80.13838,8.76822],[-80.14014,8.76841],[-80.14318,8.77231],[-80.14466,8.77295],[-80.14692,8.77537],[-80.14642,8.77717],[-80.14908,8.77916],[-80.14962,8.78202],[-80.15054,8.78149],[-80.15121,8.78181],[-80.15121,8.78383],[-80.15359,8.78648],[-80.1537,8.78771],[-80.15204,8.78713]],[[-80.15204,8.78713],[-80.14958,8.78834],[-80.15084,8.78932],[-80.15237,8.78928],[-80.1526,8.79229],[-80.15406,8.79295],[-80.15574,8.79309],[-80.15621,8.79248],[-80.15874,8.79304],[-80.15748,8.79536],[-80.15852,8.79585],[-80.15864,8.79662],[-80.15745,8.79858],[-80.15904,8.79904],[-80.1594,8.80107]],[[-80.1594,8.80107],[-80.15921,8.80265],[-80.16147,8.80309],[-80.1623,8.80548],[-80.16182,8.80602],[-80.15958,8.80577],[-80.16019,8.80725],[-80.1582,8.80883],[-80.15938,8.80925],[-80.16039,8.81209],[-80.16319,8.81519],[-80.16436,8.81518],[-80.16599,8.81727],[-80.16631,8.82138],[-80.16537,8.82259],[-80.16408,8.82299],[-80.16335,8.82602],[-80.16503,8.82655],[-80.16503,8.82957],[-80.16624,8.83066],[-80.16676,8.83289],[-80.16887,8.83353],[-80.16777,8.83524],[-80.16728,8.83769],[-80.16983,8.84091],[-80.17254,8.84051],[-80.17339,8.84366],[-80.17428,8.84334],[-80.17542,8.84446],[-80.17536,8.84527],[-80.17408,8.84546],[-80.17335,8.84735],[-80.16951,8.84956],[-80.16926,8.8516],[-80.16638,8.85732],[-80.16912,8.85767],[-80.1689,8.85923],[-80.16951,8.86038],[-80.16844,8.86103],[-80.16817,8.86241],[-80.17012,8.86539],[-80.16827,8.86878],[-80.16817,8.87084],[-80.16937,8.87495],[-80.17097,8.87726],[-80.16655,8.8767],[-80.16742,8.87957],[-80.17012,8.88244],[-80.16941,8.88714],[-80.16993,8.89027],[-80.17088,8.893],[-80.17289,8.89472],[-80.17181,8.89655],[-80.16892,8.8977],[-80.17028,8.89931],[-80.16931,8.90039],[-80.16806,8.89899],[-80.16698,8.89876],[-80.1664,8.89717],[-80.16578,8.89724],[-80.16499,8.89983],[-80.16191,8.903],[-80.16101,8.90674],[-80.15974,8.90612],[-80.15775,8.90668],[-80.15745,8.9083],[-80.15799,8.90949],[-80.15963,8.91064],[-80.15893,8.91163],[-80.15409,8.91298],[-80.15264,8.91509],[-80.14902,8.91226],[-80.1484,8.9124],[-80.14791,8.91363],[-80.14811,8.9172],[-80.14889,8.91814],[-80.14914,8.92058],[-80.14804,8.9239],[-80.14683,8.92372],[-80.14648,8.92095],[-80.14465,8.91868],[-80.1436,8.92008],[-80.14376,8.92179],[-80.14081,8.92705],[-80.13995,8.92657],[-80.13955,8.92468],[-80.14112,8.92393],[-80.14032,8.9227],[-80.13659,8.92425],[-80.13632,8.92704],[-80.1375,8.92778],[-80.13871,8.92763],[-80.13915,8.929],[-80.13707,8.93093],[-80.13433,8.9304],[-80.13398,8.9357],[-80.1349,8.93625],[-80.13631,8.93593],[-80.14133,8.93394],[-80.14116,8.93569],[-80.13928,8.93778],[-80.14074,8.93902],[-80.14266,8.93799],[-80.14337,8.93828],[-80.14448,8.93998],[-80.1437,8.94275],[-80.13982,8.94493],[-80.14013,8.94555],[-80.14198,8.94589],[-80.14035,8.94791],[-80.14049,8.94872]],[[-80.14049,8.94872],[-80.14375,8.94977],[-80.14592,8.95178],[-80.14634,8.95442],[-80.14565,8.95745],[-80.14737,8.95861],[-80.15031,8.95864],[-80.15105,8.96087],[-80.15252,8.96206],[-80.15438,8.96183],[-80.15229,8.96547],[-80.15262,8.96639],[-80.15449,8.96651],[-80.15537,8.96497],[-80.15864,8.96261],[-80.16097,8.96248],[-80.16249,8.9633],[-80.16286,8.96884],[-80.16349,8.96916],[-80.16434,8.96861],[-80.16576,8.96653],[-80.16767,8.96774],[-80.16767,8.97016],[-80.16602,8.97127],[-80.16673,8.97163],[-80.17129,8.97038],[-80.17422,8.9682],[-80.17564,8.96871],[-80.17634,8.97124],[-80.17541,8.9734],[-80.17572,8.975],[-80.17221,8.97954],[-80.17104,8.98317],[-80.17264,8.9839],[-80.17261,8.98507],[-80.17699,8.98248],[-80.17842,8.98523],[-80.18112,8.98668],[-80.18117,8.98792],[-80.17909,8.9894],[-80.17762,8.99155],[-80.17797,8.99232],[-80.1805,8.9926],[-80.1811,8.99508],[-80.17801,8.9957],[-80.17699,8.99785],[-80.17812,8.99984],[-80.18116,9.00218],[-80.18354,9.00724],[-80.18317,9.00848],[-80.18482,9.00874],[-80.18399,9.01189],[-80.18156,9.01243],[-80.18036,9.01416],[-80.1814,9.01579],[-80.18534,9.01881],[-80.1844,9.02036],[-80.1824,9.02166],[-80.18158,9.02391],[-80.17881,9.02578],[-80.17826,9.02682],[-80.17943,9.02878],[-80.1796,9.03136],[-80.18417,9.03337],[-80.18387,9.03662],[-80.18278,9.03912],[-80.18389,9.04184],[-80.18519,9.0417],[-80.18782,9.03981],[-80.18982,9.04112],[-80.18991,9.04644],[-80.19473,9.04959],[-80.19532,9.05215],[-80.19517,9.05718]],[[-80.19517,9.05718],[-80.19418,9.05896],[-80.1928,9.05971],[-80.19335,9.0608],[-80.19052,9.06228],[-80.19096,9.0637],[-80.18895,9.06364],[-80.18893,9.06536],[-80.18776,9.06739],[-80.18813,9.06811],[-80.1893,9.06836],[-80.18706,9.07205],[-80.18925,9.07474],[-80.18848,9.07568],[-80.18761,9.07572],[-80.18741,9.07471],[-80.18679,9.07501],[-80.18811,9.07679],[-80.19263,9.07619],[-80.19428,9.07832],[-80.19109,9.08164],[-80.18916,9.08233],[-80.18945,9.08378],[-80.18676,9.08423],[-80.18732,9.08561],[-80.19345,9.08645],[-80.19419,9.088],[-80.19651,9.08762],[-80.19653,9.08897],[-80.19494,9.09201],[-80.19507,9.09398],[-80.19775,9.09825],[-80.19802,9.10219],[-80.19946,9.10257],[-80.20015,9.10422],[-80.20364,9.10598],[-80.20436,9.10989],[-80.20429,9.11449],[-80.20356,9.11594],[-80.19814,9.12073],[-80.19681,9.12355],[-80.19783,9.1256],[-80.20034,9.12768],[-80.20055,9.12918],[-80.19697,9.13129],[-80.19406,9.13399],[-80.19148,9.13497],[-80.1926,9.13746],[-80.19795,9.14501],[-80.196,9.14721],[-80.1919,9.14911],[-80.19122,9.15059],[-80.19368,9.15215],[-80.19818,9.15321],[-80.1985,9.15407],[-80.1965,9.15996],[-80.19706,9.16715],[-80.19484,9.17136],[-80.19489,9.17534],[-80.19077,9.18154],[-80.1879,9.19341]]]}}]}